NOAA 15                 
1 25338U 98030A   22256.18809215  .00000120  00000+0  68152-4 0  9990
2 25338  98.6394 284.5557 0011119  46.7878 313.4229 14.26169767265771
NOAA 18                 
1 28654U 05018A   22256.59315904  .00000168  00000+0  11417-3 0  9993
2 28654  98.9426 326.9336 0015261  83.7604 276.5306 14.12774963892518
NOAA 19                 
1 33591U 09005A   22256.17940913  .00000161  00000+0  11197-3 0  9995
2 33591  99.1418 292.1332 0013019 303.9609  56.0324 14.12608263700832
METOP-B                 
1 38771U 12049A   22256.62998465  .00000082  00000+0  57538-4 0  9999
2 38771  98.6877 315.0443 0001622 122.1748  32.9332 14.21506840518253
SARAL                   
1 39086U 13009A   22256.14636644  .00000049  00000+0  34566-4 0  9990
2 39086  98.5495  80.4920 0001785  49.8152 310.3188 14.32061548499034
METOP-C                 
1 43689U 18087A   22256.63666161  .00000081  00000+0  56828-4 0  9997
2 43689  98.6760 315.1588 0003582 131.6713 228.4771 14.21506768199830
ANGELS                  
1 44876U 19092D   22256.59194671  .00003297  00000+0  16385-3 0  9995
2 44876  97.4769  78.9072 0013241  55.6667 304.5818 15.18284217151614
